{
    "links": {
        "self": "http://www.neowsapp.com/rest/v1/neo/3766677?api_key=iIulBulltgU6a56xZRHN4H3l9WmuAYTsLGpBGhQ2"
    },
    "id": "3766677",
    "neo_reference_id": "3766677",
    "name": "(2017 BP3)",
    "designation": "2017 BP3",
    "nasa_jpl_url": "http://ssd.jpl.nasa.gov/sbdb.cgi?sstr=3766677",
    "absolute_magnitude_h": 23.5,
    "estimated_diameter": {
        "kilometers": {
            "estimated_diameter_min": 0.0530340723,
            "estimated_diameter_max": 0.1185877909
        },
        "meters": {
            "estimated_diameter_min": 53.0340723319,
            "estimated_diameter_max": 118.5877908577
        },
        "miles": {
            "estimated_diameter_min": 0.0329538346,
            "estimated_diameter_max": 0.0736870142
        },
        "feet": {
            "estimated_diameter_min": 173.9963058693,
            "estimated_diameter_max": 389.0675677576
        }
    },
    "is_potentially_hazardous_asteroid": false,
    "close_approach_data": [
        {
            "close_approach_date": "2017-01-23",
            "close_approach_date_full": "2017-Jan-23 15:21",
            "epoch_date_close_approach": 1485184860000,
            "relative_velocity": {
                "kilometers_per_second": "8.5542092213",
                "kilometers_per_hour": "30795.1531966509",
                "miles_per_hour": "19134.9106071079"
            },
            "miss_distance": {
                "astronomical": "0.0944178353",
                "lunar": "36.7285379317",
                "kilometers": "14124707.050890811",
                "miles": "8776685.9810867518"
            },
            "orbiting_body": "Earth"
        },
        {
            "close_approach_date": "2172-04-07",
            "close_approach_date_full": "2172-Apr-07 18:52",
            "epoch_date_close_approach": 6382954320000,
            "relative_velocity": {
                "kilometers_per_second": "18.6905029043",
                "kilometers_per_hour": "67285.8104554854",
                "miles_per_hour": "41808.785946632"
            },
            "miss_distance": {
                "astronomical": "0.4478547603",
                "lunar": "174.2155017567",
                "kilometers": "66998118.210240561",
                "miles": "41630700.2146233018"
            },
            "orbiting_body": "Earth"
        }
    ],
    "orbital_data": {
        "orbit_id": "7",
        "orbit_determination_date": "2017-04-06 08:20:54",
        "first_observation_date": "2017-01-23",
        "last_observation_date": "2017-02-27",
        "data_arc_in_days": 35,
        "observations_used": 33,
        "orbit_uncertainty": "7",
        "minimum_orbit_intersection": ".0566315",
        "jupiter_tisserand_invariant": "3.511",
        "epoch_osculation": "2459000.5",
        "eccentricity": ".5194741664991436",
        "semi_major_axis": "2.152212030591273",
        "inclination": "5.722200937089191",
        "ascending_node_longitude": "302.4243442026058",
        "orbital_period": "1153.256759923175",
        "perihelion_distance": "1.034193479870442",
        "perihelion_argument": "201.4933373509671",
        "aphelion_distance": "3.270230581312104",
        "perihelion_time": "2458944.198769679322",
        "mean_anomaly": "17.57496129204939",
        "mean_motion": ".3121594535669419",
        "equinox": "J2000",
        "orbit_class": {
            "orbit_class_type": "AMO",
            "orbit_class_description": "Near-Earth asteroid orbits similar to that of 1221 Amor",
            "orbit_class_range": "1.017 AU < q (perihelion) < 1.3 AU"
        }
    },
    "is_sentry_object": false
}